STARLINK-36782          
1 67805C 26032J   26107.87548611 -.02015300  00000+0 -20764-1 0  1078
2 67805  97.2847 296.3439 0001713  76.4438 352.3771 15.65872456    13
STARLINK-36389          
1 67806C 26032K   26107.87479167 -.02015100  00000+0 -21595-1 0  1079
2 67806  97.2847 296.3066 0001450  94.4099 246.1499 15.64873409    16
STARLINK-36382          
1 67807C 26032L   26107.84215278 -.02043600  00000+0 -30400-1 0  1079
2 67807  97.2847 296.2311 0001666  83.9945 335.5195 15.56216614    17
STARLINK-36811          
1 67808C 26032M   26107.86645833 -.02024000  00000+0 -20793-1 0  1073
2 67808  97.2848 296.3315 0001423  84.2185 286.0428 15.65952037    10
STARLINK-36795          
1 67809C 26032N   26107.87965278 -.02017900  00000+0 -22149-1 0  1071
2 67809  97.2848 296.2970 0001530  94.3599 240.2081 15.64262083    18
STARLINK-36807          
1 67810C 26032P   26107.85743056 -.02016400  00000+0 -20747-1 0  1075
2 67810  97.2848 296.3190 0001563  93.2045 219.5931 15.65908364    18
STARLINK-36733          
1 67811C 26032Q   26107.92548611 -.02036300  00000+0 -21425-1 0  1079
2 67811  97.2843 296.4106 0001571  76.5703 311.1889 15.65351920    17
STARLINK-36377          
1 67812C 26032R   26107.87201389  .00053708  00000+0  98940-3 0  1077
2 67812  97.2843 296.2237 0001637  73.3449  62.8513 15.49164675    11
STARLINK-36732          
1 67813C 26032S   26107.93868056 -.02022800  00000+0 -32973-1 0  1070
2 67813  97.2845 296.3520 0001678 100.7051 192.0714 15.53679705    18
STARLINK-36767          
1 67814C 26032T   26107.89423611 -.02015100  00000+0 -21932-1 0  1078
2 67814  97.2846 296.3202 0001589  86.4512 350.7421 15.64476607    16
STARLINK-36797          
1 67815C 26032U   26107.85604167  .00075214  00000+0  13853-2 0  1074
2 67815  97.2845 296.1628 0001152 103.1224 200.5589 15.49159741    16
STARLINK-36343          
1 67816C 26032V   26107.88659722 -.02019300  00000+0 -24844-1 0  1074
2 67816  97.2844 296.3677 0002085  83.9370  78.6560 15.61296116    10
STARLINK-36756          
1 67817C 26032W   26107.91159722 -.02022600  00000+0 -22173-1 0  1074
2 67817  97.2847 296.3802 0001768  95.9079 177.9095 15.64294722    10
STARLINK-36346          
1 67818C 26032X   26107.91923611 -.02020900  00000+0 -27728-1 0  1073
2 67818  97.2845 296.3962 0001570  89.5022 244.0842 15.58397379    15
STARLINK-36788          
1 67819C 26032Y   26107.86576389 -.02015200  00000+0 -21164-1 0  1079
2 67819  97.2849 296.3105 0001546  87.5167 234.2972 15.65387869    16
STARLINK-36353          
1 67820C 26032Z   26107.86020833 -.02015600  00000+0 -21060-1 0  1078
2 67820  97.2848 296.3143 0001503  87.4782 225.9368 15.65518083    14
STARLINK-36644          
1 67821C 26033A   26107.87062500  .00006646  00000+0  24067-3 0  1076
2 67821  43.0016  45.6989 0000790 244.6122 240.6013 15.27584407    18
STARLINK-36643          
1 67822C 26033B   26107.85673611  .00014840  00000+0  53734-3 0  1074
2 67822  43.0043  46.1289 0001316 261.3287   5.9179 15.27581615    14
STARLINK-36646          
1 67823C 26033C   26107.85395833  .00019284  00000+0  69830-3 0  1073
2 67823  43.0018  45.8788 0000698 241.9063 116.1712 15.27577332    14
STARLINK-36647          
1 67824C 26033D   26107.91159722 -.00020186  00000+0 -73106-3 0  1072
2 67824  43.0017  45.4214 0001336 265.7387 106.2792 15.27592550    14
STARLINK-36648          
1 67825C 26033E   26107.85812500  .00012207  00000+0  44203-3 0  1075
2 67825  43.0045  45.4717 0001371 255.9761 280.5888 15.27579650    18
STARLINK-35865          
1 67826C 26033F   26107.86715278  .00009205  00000+0  33335-3 0  1079
2 67826  43.0018  45.7653 0001115 257.5015 187.3787 15.27579934    14
STARLINK-36289          
1 67827C 26033G   26107.84770833  .00015250  00000+0  55236-3 0  1077
2 67827  43.0050  46.2636 0001564 255.5048 286.6803 15.27570910    17
STARLINK-36670          
1 67828C 26033H   26107.87826389  .00007034  00000+0  25471-3 0  1078
2 67828  43.0050  46.0359 0001303 263.4326 108.1986 15.27582633    11
STARLINK-36144          
1 67829C 26033J   26107.85881944  .00015042  00000+0  54469-3 0  1072
2 67829  43.0031  46.0766 0001249 248.2116  44.6636 15.27579300    13
STARLINK-36611          
1 67830C 26033K   26107.87756944  .00008275  00000+0  29963-3 0  1078
2 67830  43.0047  46.2079 0001421 279.8798  17.1867 15.27584312    19
STARLINK-36661          
1 67831C 26033L   26107.92340278 -.00028053  00000+0 -10159-2 0  1078
2 67831  43.0049  45.9073 0001076 258.1270 312.5006 15.27599703    10
STARLINK-36662          
1 67832C 26033M   26107.89701389 -.00019261  00000+0 -69764-3 0  1077
2 67832  43.0018  38.6087 0000943 254.7437 328.1108 15.27587634    16
STARLINK-36659          
1 67833C 26033N   26107.92062500 -.00020097  00000+0 -72784-3 0  1072
2 67833  43.0017  45.3211 0001312 239.4699 196.4169 15.27592372    19
STARLINK-36655          
1 67834C 26033P   26107.90604167 -.00013563  00000+0 -49121-3 0  1071
2 67834  43.0041  45.2265 0001583 265.4569 167.9582 15.27588837    13
STARLINK-36657          
1 67835C 26033Q   26107.87340278  .00007882  00000+0  28545-3 0  1070
2 67835  43.0028  45.4878 0001411 265.6982 312.6495 15.27577154    14
STARLINK-36650          
1 67836C 26033R   26107.85465278  .00016580  00000+0  60049-3 0  1077
2 67836  43.0026  46.0474 0000710 257.8351  33.3300 15.27573529    10
STARLINK-36649          
1 67837C 26033S   26107.88451389  .00002210  00000+0  80056-4 0  1075
2 67837  43.0049  46.0140 0001274 269.8752 129.1031 15.27579327    17
STARLINK-36654          
1 67838C 26033T   26107.92131944  .00012141  00000+0  43993-3 0  1075
2 67838  43.0015  45.6150 0000794 265.4380  53.8991 15.27558173    16
STARLINK-36652          
1 67839C 26033U   26107.92826389 -.00027277  00000+0 -98781-3 0  1073
2 67839  43.0013  45.5282 0001025 262.3499 116.5378 15.27597720    12
STARLINK-36651          
1 67840C 26033V   26107.87548611  .00004190  00000+0  15180-3 0  1077
2 67840  43.0018  45.7697 0000753 245.2137 224.3008 15.27568341    12
STARLINK-36656          
1 67841C 26033W   26107.91090278 -.00007074  00000+0 -24972-3 0  1079
2 67841  43.0016  45.5345 0000824 238.6159  80.5820 15.28423005    10
STARLINK-36653          
1 67842C 26033X   26107.93104167 -.00024073  00000+0 -87179-3 0  1071
2 67842  43.0016  45.3206 0001186 257.5091 214.4899 15.27595559    19
STARLINK-36589          
1 67843C 26033Y   26107.84631944  .00149150  00000+0  53960-2 0  1072
2 67843  43.0019  45.6952 0001270 261.4430 146.5641 15.27542481    15
STARLINK-36598          
1 67844C 26033Z   26107.94631944 -.00023400  00000+0 -84759-3 0  1076
2 67844  43.0049  45.7370 0001370 268.2792  82.6735 15.27588109    12
STARLINK-36606          
1 67845C 26033AA  26107.85326389  .00015458  00000+0  55980-3 0  1077
2 67845  43.0024  45.6164 0001120 255.1944 205.1970 15.27575904    15
STARLINK-36658          
1 67846C 26033AB  26107.88243056  .00003401  00000+0  12317-3 0  1072
2 67846  43.0046  45.9924 0001186 266.9697 134.6725 15.27577140    12
STARLINK-36618          
1 67847C 26033AC  26107.94145833 -.00016906  00000+0 -28725-3 0  1070
2 67847  43.0000  32.3914 0001526 261.8434  85.6133 15.50581625    10
STARLINK-36660          
1 67848C 26033AD  26107.90534722 -.00004823  00000+0 -17463-3 0  1078
2 67848  43.0035  45.8281 0001093 259.1211 282.8474 15.27589571    18
STARLINK-36602          
1 67849C 26033AE  26107.85256944  .00014521  00000+0  52588-3 0  1071
2 67849  43.0050  46.3150 0001263 273.5865 259.9941 15.27575639    15
STARLINK-36840          
1 67850C 26034A   26107.85812500 -.00020033  00000+0 -65764-3 0  1077
2 67850  53.1601  22.0827 0000943  98.4524 349.8437 15.31050457    13
STARLINK-36348          
1 67851C 26034B   26107.89840278 -.00040710  00000+0 -13714-2 0  1076
2 67851  53.1606  22.4171 0001353  87.6021 321.6099 15.30227579    15
STARLINK-36276          
1 67852C 26034C   26107.94145833 -.00012409  00000+0 -40789-3 0  1075
2 67852  53.1604  22.2083 0001232  92.3847 199.3404 15.31003583    17
STARLINK-36785          
1 67853C 26034D   26107.86506944 -.00017072  00000+0 -57529-3 0  1072
2 67853  53.1599  22.2689 0001255  94.8912 270.2217 15.30205351    15
STARLINK-36608          
1 67854C 26034E   26107.94493056 -.00030474  00000+0 -10278-2 0  1071
2 67854  53.1597  21.7448 0001300  89.8991  71.0797 15.30184520    17
STARLINK-36838          
1 67855C 26034F   26107.86437500 -.00014145  00000+0 -46429-3 0  1070
2 67855  53.1600  22.0919 0001276  91.6668 359.3364 15.31050322    19
STARLINK-36843          
1 67856C 26034G   26107.90951389 -.00046652  00000+0 -15720-2 0  1079
2 67856  53.1607  21.7903 0001384  87.7579 307.7176 15.30221121    17
STARLINK-36828          
1 67857C 26034H   26107.86784722 -.00014903  00000+0 -50222-3 0  1071
2 67857  53.1603  21.9965 0001276  92.9561  55.4453 15.30203810    13
STARLINK-36837          
1 67858C 26034J   26107.86298611 -.00026181  00000+0 -85952-3 0  1078
2 67858  53.1601  22.1289 0001346  93.3535 342.8542 15.31050811    12
STARLINK-36393          
1 67859C 26034K   26107.91576389 -.00018062  00000+0 -60822-3 0  1074
2 67859  53.1608  21.6702 0001330  82.6294  22.1024 15.30228962    16
STARLINK-35873          
1 67860C 26034L   26107.84979167 -.00006257  00000+0 -21085-3 0  1070
2 67860  53.1611  22.6397 0001327  90.6041  39.0752 15.30197080    19
STARLINK-36325          
1 67861C 26034M   26107.90534722 -.00053548  00000+0 -18043-2 0  1076
2 67861  53.1608  22.3470 0001273  93.2101   0.1176 15.30226248    19
STARLINK-36332          
1 67862C 26034N   26107.85534722 -.00005905  00000+0 -19903-3 0  1072
2 67862  53.1607  22.5435 0001372  92.6614 102.5384 15.30193929    11
STARLINK-36835          
1 67863C 26034P   26107.90673611 -.00025383  00000+0 -85551-3 0  1074
2 67863  53.1608  22.2688 0001330  89.7479  46.1442 15.30203475    16
